CCSDS_OMM_VERS = 2.0
CREATION_DATE  = 
ORIGINATOR     = 

OBJECT_NAME    = SL-16 R/B
OBJECT_ID      = 1993-016B
CENTER_NAME    = EARTH
REF_FRAME      = TEME
TIME_SYSTEM    = UTC
MEAN_ELEMENT_THEORY = SGP/SGP4

EPOCH          = 2026-01-31T22:58:09.363648
MEAN_MOTION    = 14.15302614
ECCENTRICITY   = .00097497
INCLINATION    = 71.0084
RA_OF_ASC_NODE = 292.3343
ARG_OF_PERICENTER = 6.4069
MEAN_ANOMALY   = 353.7177

EPHEMERIS_TYPE = 0
CLASSIFICATION_TYPE = U
NORAD_CAT_ID   = 22566
ELEMENT_SET_NO = 999
REV_AT_EPOCH   = 69697
BSTAR          = .12515088E-3
MEAN_MOTION_DOT = .196E-5
MEAN_MOTION_DDOT = 0

CCSDS_OMM_VERS = 2.0
CREATION_DATE  = 
ORIGINATOR     = 

OBJECT_NAME    = COSMOS 2242
OBJECT_ID      = 1993-024A
CENTER_NAME    = EARTH
REF_FRAME      = TEME
TIME_SYSTEM    = UTC
MEAN_ELEMENT_THEORY = SGP/SGP4

EPOCH          = 2026-01-31T23:50:45.013920
MEAN_MOTION    = 14.96385390
ECCENTRICITY   = .00180439
INCLINATION    = 82.5208
RA_OF_ASC_NODE = 301.8109
ARG_OF_PERICENTER = 70.3205
MEAN_ANOMALY   = 289.9961

EPHEMERIS_TYPE = 0
CLASSIFICATION_TYPE = U
NORAD_CAT_ID   = 22626
ELEMENT_SET_NO = 999
REV_AT_EPOCH   = 77490
BSTAR          = .1704407E-3
MEAN_MOTION_DOT = .1962E-4
MEAN_MOTION_DDOT = 0

CCSDS_OMM_VERS = 2.0
CREATION_DATE  = 
ORIGINATOR     = 

OBJECT_NAME    = SL-16 R/B
OBJECT_ID      = 1993-059B
CENTER_NAME    = EARTH
REF_FRAME      = TEME
TIME_SYSTEM    = UTC
MEAN_ELEMENT_THEORY = SGP/SGP4

EPOCH          = 2026-02-01T03:03:36.410400
MEAN_MOTION    = 14.17223525
ECCENTRICITY   = .00195191
INCLINATION    = 70.9895
RA_OF_ASC_NODE = 88.2329
ARG_OF_PERICENTER = 266.3632
MEAN_ANOMALY   = 93.5259

EPHEMERIS_TYPE = 0
CLASSIFICATION_TYPE = U
NORAD_CAT_ID   = 22803
ELEMENT_SET_NO = 999
REV_AT_EPOCH   = 67435
BSTAR          = .79682614E-4
MEAN_MOTION_DOT = .113E-5
MEAN_MOTION_DDOT = 0

CCSDS_OMM_VERS = 2.0
CREATION_DATE  = 
ORIGINATOR     = 

OBJECT_NAME    = ARIANE 40 R/B
OBJECT_ID      = 1993-061H
CENTER_NAME    = EARTH
REF_FRAME      = TEME
TIME_SYSTEM    = UTC
MEAN_ELEMENT_THEORY = SGP/SGP4

EPOCH          = 2026-01-31T18:11:31.674336
MEAN_MOTION    = 14.32840168
ECCENTRICITY   = .00112585
INCLINATION    = 98.4995
RA_OF_ASC_NODE = 101.3600
ARG_OF_PERICENTER = 38.8723
MEAN_ANOMALY   = 321.3269

EPHEMERIS_TYPE = 0
CLASSIFICATION_TYPE = U
NORAD_CAT_ID   = 22830
ELEMENT_SET_NO = 999
REV_AT_EPOCH   = 68881
BSTAR          = .11410713E-3
MEAN_MOTION_DOT = .268E-5
MEAN_MOTION_DDOT = 0

CCSDS_OMM_VERS = 2.0
CREATION_DATE  = 
ORIGINATOR     = 

OBJECT_NAME    = COSMOS 2278
OBJECT_ID      = 1994-023A
CENTER_NAME    = EARTH
REF_FRAME      = TEME
TIME_SYSTEM    = UTC
MEAN_ELEMENT_THEORY = SGP/SGP4

EPOCH          = 2026-02-01T02:29:50.897184
MEAN_MOTION    = 14.14365770
ECCENTRICITY   = .00063163
INCLINATION    = 71.0513
RA_OF_ASC_NODE = 251.6418
ARG_OF_PERICENTER = 82.4759
MEAN_ANOMALY   = 277.7081

EPHEMERIS_TYPE = 0
CLASSIFICATION_TYPE = U
NORAD_CAT_ID   = 23087
ELEMENT_SET_NO = 999
REV_AT_EPOCH   = 63963
BSTAR          = -.84070906E-4
MEAN_MOTION_DOT = -.208E-5
MEAN_MOTION_DDOT = 0

CCSDS_OMM_VERS = 2.0
CREATION_DATE  = 
ORIGINATOR     = 

OBJECT_NAME    = SL-16 R/B
OBJECT_ID      = 1994-023B
CENTER_NAME    = EARTH
REF_FRAME      = TEME
TIME_SYSTEM    = UTC
MEAN_ELEMENT_THEORY = SGP/SGP4

EPOCH          = 2026-02-01T00:37:04.615104
MEAN_MOTION    = 14.15004680
ECCENTRICITY   = .00044054
INCLINATION    = 71.0000
RA_OF_ASC_NODE = 147.8855
ARG_OF_PERICENTER = 319.2751
MEAN_ANOMALY   = 40.8042

EPHEMERIS_TYPE = 0
CLASSIFICATION_TYPE = U
NORAD_CAT_ID   = 23088
ELEMENT_SET_NO = 999
REV_AT_EPOCH   = 64090
BSTAR          = -.10156313E-3
MEAN_MOTION_DOT = -.244E-5
MEAN_MOTION_DDOT = 0

CCSDS_OMM_VERS = 2.0
CREATION_DATE  = 
ORIGINATOR     = 

OBJECT_NAME    = SL-16 R/B
OBJECT_ID      = 1994-074B
CENTER_NAME    = EARTH
REF_FRAME      = TEME
TIME_SYSTEM    = UTC
MEAN_ELEMENT_THEORY = SGP/SGP4

EPOCH          = 2026-01-31T22:30:18.245952
MEAN_MOTION    = 14.79361371
ECCENTRICITY   = .00062787
INCLINATION    = 97.7154
RA_OF_ASC_NODE = 64.2364
ARG_OF_PERICENTER = 354.1110
MEAN_ANOMALY   = 101.4626

EPHEMERIS_TYPE = 0
CLASSIFICATION_TYPE = U
NORAD_CAT_ID   = 23343
ELEMENT_SET_NO = 999
REV_AT_EPOCH   = 68181
BSTAR          = .78816605E-4
MEAN_MOTION_DOT = .538E-5
MEAN_MOTION_DDOT = 0

CCSDS_OMM_VERS = 2.0
CREATION_DATE  = 
ORIGINATOR     = 

OBJECT_NAME    = SL-16 R/B
OBJECT_ID      = 1994-077B
CENTER_NAME    = EARTH
REF_FRAME      = TEME
TIME_SYSTEM    = UTC
MEAN_ELEMENT_THEORY = SGP/SGP4

EPOCH          = 2026-02-01T02:12:58.582080
MEAN_MOTION    = 14.15557150
ECCENTRICITY   = .00046336
INCLINATION    = 70.9817
RA_OF_ASC_NODE = 69.4844
ARG_OF_PERICENTER = 245.0305
MEAN_ANOMALY   = 115.0337

EPHEMERIS_TYPE = 0
CLASSIFICATION_TYPE = U
NORAD_CAT_ID   = 23405
ELEMENT_SET_NO = 999
REV_AT_EPOCH   = 61105
BSTAR          = -.84502155E-4
MEAN_MOTION_DOT = -.213E-5
MEAN_MOTION_DDOT = 0

CCSDS_OMM_VERS = 2.0
CREATION_DATE  = 
ORIGINATOR     = 

OBJECT_NAME    = ARIANE 40+ R/B
OBJECT_ID      = 1995-021B
CENTER_NAME    = EARTH
REF_FRAME      = TEME
TIME_SYSTEM    = UTC
MEAN_ELEMENT_THEORY = SGP/SGP4

EPOCH          = 2026-02-01T04:25:03.418176
MEAN_MOTION    = 14.39743780
ECCENTRICITY   = .00057584
INCLINATION    = 98.4570
RA_OF_ASC_NODE = 104.1475
ARG_OF_PERICENTER = 246.9003
MEAN_ANOMALY   = 131.7016

EPHEMERIS_TYPE = 0
CLASSIFICATION_TYPE = U
NORAD_CAT_ID   = 23561
ELEMENT_SET_NO = 999
REV_AT_EPOCH   = 61399
BSTAR          = .12036628E-3
MEAN_MOTION_DOT = .333E-5
MEAN_MOTION_DDOT = 0

CCSDS_OMM_VERS = 2.0
CREATION_DATE  = 
ORIGINATOR     = 

OBJECT_NAME    = SL-16 R/B
OBJECT_ID      = 1995-058B
CENTER_NAME    = EARTH
REF_FRAME      = TEME
TIME_SYSTEM    = UTC
MEAN_ELEMENT_THEORY = SGP/SGP4

EPOCH          = 2026-01-31T22:56:55.780224
MEAN_MOTION    = 14.15488150
ECCENTRICITY   = .00127559
INCLINATION    = 71.0191
RA_OF_ASC_NODE = 257.3769
ARG_OF_PERICENTER = 185.5059
MEAN_ANOMALY   = 174.5926

EPHEMERIS_TYPE = 0
CLASSIFICATION_TYPE = U
NORAD_CAT_ID   = 23705
ELEMENT_SET_NO = 999
REV_AT_EPOCH   = 56265
BSTAR          = .71061194E-4
MEAN_MOTION_DOT = .91E-6
MEAN_MOTION_DDOT = 0

CCSDS_OMM_VERS = 2.0
CREATION_DATE  = 
ORIGINATOR     = 

OBJECT_NAME    = SL-16 R/B
OBJECT_ID      = 1996-051B
CENTER_NAME    = EARTH
REF_FRAME      = TEME
TIME_SYSTEM    = UTC
MEAN_ELEMENT_THEORY = SGP/SGP4

EPOCH          = 2026-01-31T21:56:00.160800
MEAN_MOTION    = 14.12405022
ECCENTRICITY   = .00180971
INCLINATION    = 70.7567
RA_OF_ASC_NODE = 253.0815
ARG_OF_PERICENTER = 198.9143
MEAN_ANOMALY   = 161.1306

EPHEMERIS_TYPE = 0
CLASSIFICATION_TYPE = U
NORAD_CAT_ID   = 24298
ELEMENT_SET_NO = 999
REV_AT_EPOCH   = 51645
BSTAR          = .63446962E-4
MEAN_MOTION_DOT = .68E-6
MEAN_MOTION_DDOT = 0

CCSDS_OMM_VERS = 2.0
CREATION_DATE  = 
ORIGINATOR     = 

OBJECT_NAME    = ORBVIEW 2 (SEASTAR)
OBJECT_ID      = 1997-037A
CENTER_NAME    = EARTH
REF_FRAME      = TEME
TIME_SYSTEM    = UTC
MEAN_ELEMENT_THEORY = SGP/SGP4

EPOCH          = 2026-02-01T04:08:18.789216
MEAN_MOTION    = 14.35464717
ECCENTRICITY   = .00026535
INCLINATION    = 98.8504
RA_OF_ASC_NODE = 195.5299
ARG_OF_PERICENTER = 147.6016
MEAN_ANOMALY   = 212.5332

EPHEMERIS_TYPE = 0
CLASSIFICATION_TYPE = U
NORAD_CAT_ID   = 24883
ELEMENT_SET_NO = 999
REV_AT_EPOCH   = 50323
BSTAR          = .12760934E-3
MEAN_MOTION_DOT = .32E-5
MEAN_MOTION_DDOT = 0

