SL-16 R/B               
1 22566U 93016B   26031.95705282  .00000196  00000+0  12515-3 0  9992
2 22566  71.0084 292.3343 0009749   6.4069 353.7177 14.15302614696970
COSMOS 2242             
1 22626U 93024A   26031.99357655  .00001962  00000+0  17044-3 0  9993
2 22626  82.5208 301.8109 0018043  70.3205 289.9961 14.96385390774909
SL-16 R/B               
1 22803U 93059B   26032.12750475  .00000113  00000+0  79683-4 0  9996
2 22803  70.9895  88.2329 0019519 266.3632  93.5259 14.17223525674350
ARIANE 40 R/B           
1 22830U 93061H   26031.75800549  .00000268  00000+0  11411-3 0  9990
2 22830  98.4995 101.3600 0011258  38.8723 321.3269 14.32840168688814
COSMOS 2278             
1 23087U 94023A   26032.10406131 -.00000208  00000+0 -84071-4 0  9992
2 23087  71.0513 251.6418 0006316  82.4759 277.7081 14.14365770639634
SL-16 R/B               
1 23088U 94023B   26032.02574786 -.00000244  00000+0 -10156-3 0  9998
2 23088  71.0000 147.8855 0004405 319.2751  40.8042 14.15004680640906
SL-16 R/B               
1 23343U 94074B   26031.93771118  .00000538  00000+0  78817-4 0  9998
2 23343  97.7154  64.2364 0006278 354.1110 101.4626 14.79361371681819
SL-16 R/B               
1 23405U 94077B   26032.09234470 -.00000213  00000+0 -84502-4 0  9993
2 23405  70.9817  69.4844 0004633 245.0305 115.0337 14.15557150611055
ARIANE 40+ R/B          
1 23561U 95021B   26032.18406734  .00000333  00000+0  12037-3 0  9994
2 23561  98.4570 104.1475 0005758 246.9003 131.7016 14.39743780613996
SL-16 R/B               
1 23705U 95058B   26031.95620116  .00000091  00000+0  71061-4 0  9994
2 23705  71.0191 257.3769 0012755 185.5059 174.5926 14.15488150562655
SL-16 R/B               
1 24298U 96051B   26031.91389075  .00000068  00000+0  63447-4 0  9991
2 24298  70.7567 253.0815 0018097 198.9143 161.1306 14.12405022516453
ORBVIEW 2 (SEASTAR)     
1 24883U 97037A   26032.17243969  .00000320  00000+0  12761-3 0  9999
2 24883  98.8504 195.5299 0002653 147.6016 212.5332 14.35464717503235
